NORAD_CAT_ID,OBJECT_NAME,OBJECT_TYPE,EPOCH,MEAN_MOTION,ECCENTRICITY,INCLINATION,RA_OF_ASC_NODE,ARG_OF_PERICENTER,MEAN_ANOMALY,BSTAR,MEAN_MOTION_DOT,MEAN_MOTION_DDOT,TLE_LINE0,TLE_LINE1,TLE_LINE2,SEMIMAJOR_AXIS,PERIOD,APOGEE,PERIGEE,DECAYED
53926.0,STARLINK-5014,PAYLOAD,2022-10-26 06:00:00,15.73178871,0.0001369,53.2151,98.143,75.1611,299.3433,0.00037461,0.00052234,0.0,0 STARLINK-5014,1 53926U 22119AS  22299.25001157  .00052234  00000-0  37461-3 0  9995,2 53926  53.2151  98.1430 0001369  75.1611 299.3433 15.73178871  5353,6727.955,91.534,350.741,348.899,0.0
53926.0,STARLINK-5014,PAYLOAD,2022-10-26 14:00:01,15.73233546,0.0001484,53.2151,96.4941,71.9059,31.5101,9.2078e-05,0.0001234,0.0,0 STARLINK-5014,1 53926U 22119AS  22299.58334491  .00012340  00000-0  92078-4 0  9991,2 53926  53.2151  96.4941 0001484  71.9059  31.5101 15.73233546  1309,6727.8,91.531,350.663,348.666,0.0
53926.0,STARLINK-5014,PAYLOAD,2022-10-26 22:00:00,15.73228872,0.0001462,53.2146,94.8459,61.5712,130.8235,-6.597e-05,-9.88e-05,0.0,0 STARLINK-5014,1 53926U 22119AS  22299.91667824 -.00009880  00000-0 -65970-4 0  9995,2 53926  53.2146  94.8459 0001462  61.5712 130.8235 15.73228872  1303,6727.813,91.532,350.661,348.694,0.0
53926.0,STARLINK-5014,PAYLOAD,2022-10-27 14:00:01,15.7325116,0.0001419999999999,53.2152,91.5455,66.1184,304.2418,-7.2349e-05,-0.00010784,0.0,0 STARLINK-5014,1 53926U 22119AS  22300.58335648 -.00010784  00000-0 -72349-4 0  9990,2 53926  53.2152  91.5455 0001420  66.1184 304.2418 15.73251160  5566,6727.749,91.53,350.57,348.659,0.0
53926.0,STARLINK-5014,PAYLOAD,2022-10-27 22:00:00,15.73236199,0.0001421,53.2152,89.8971,53.5836,45.7069,-8.183600000000001e-05,-0.00012107,0.0,0 STARLINK-5014,1 53926U 22119AS  22300.91667824 -.00012107  00000-0 -81836-4 0  9993,2 53926  53.2152  89.8971 0001421  53.5836  45.7069 15.73236199  1306,6727.792,91.531,350.61300000000006,348.701,0.0
53926.0,STARLINK-5014,PAYLOAD,2022-10-28 14:00:01,15.73186421,0.0001351999999999,53.2156,86.5971,53.206,224.0573,0.00023458,0.0003241,0.0,0 STARLINK-5014,1 53926U 22119AS  22301.58335648  .00032410  00000-0  23458-3 0  9995,2 53926  53.2156  86.5971 0001352  53.2060 224.0573 15.73186421  5727,6727.934,91.534,350.709,348.889,0.0
53926.0,STARLINK-5014,PAYLOAD,2022-10-28 22:00:01,15.73232007,0.0001414,53.215,84.9486,40.2916,325.8941,-0.00037477,-0.00052959,0.0,0 STARLINK-5014,1 53926U 22119AS  22301.91668981 -.00052959  00000-0 -37477-3 0  9999,2 53926  53.2150  84.9486 0001414  40.2916 325.8941 15.73232007  1300,6727.804,91.531,350.62,348.718,0.0
53926.0,STARLINK-5014,PAYLOAD,2022-10-29 04:00:00,15.73181277,0.0001281999999999,53.2153,83.7098,50.5393,292.3068,2.626e-05,3.064e-05,0.0,0 STARLINK-5014,1 53926U 22119AS  22302.16667824  .00003064  00000-0  26260-4 0  9992,2 53926  53.2153  83.7098 0001282  50.5393 292.3068 15.73181277  5815,6727.949000000001,91.534,350.676,348.951,0.0
53926.0,STARLINK-5014,PAYLOAD,2022-10-29 12:00:00,15.7295262,0.0001283,53.2166,82.0451,54.8046,17.0293,0.0016779,0.00239146,0.0,0 STARLINK-5014,1 53926U 22119AS  22302.50001157  .00239146  00000-0  16779-2 0  9995,2 53926  53.2166  82.0451 0001283  54.8046  17.0293 15.72952620  1306,6728.601,91.548,351.329,349.602,0.0
53926.0,STARLINK-5014,PAYLOAD,2022-10-29 22:00:01,15.73186046,0.0001489,53.2154,80.0003,35.6953,237.2549,-4.5086e-05,-6.939e-05,0.0,0 STARLINK-5014,1 53926U 22119AS  22302.91668981 -.00006939  00000-0 -45086-4 0  9993,2 53926  53.2154  80.0003 0001489  35.6953 237.2549 15.73186046  1308,6727.935,91.534,350.802,348.798,0.0
53926.0,STARLINK-5014,PAYLOAD,2022-10-30 14:00:01,15.73173694,0.000162,53.2157,76.7009,38.9789,51.7246,8.403700000000001e-05,0.00011176,0.0,0 STARLINK-5014,1 53926U 22119AS  22303.58334491  .00011176  00000-0  84037-4 0  9999,2 53926  53.2157  76.7009 0001620  38.9789  51.7246 15.73173694  1307,6727.97,91.535,350.925,348.745,0.0
53926.0,STARLINK-5014,PAYLOAD,2022-10-30 22:00:01,15.73182782,0.0001699,53.215,75.0519,32.0589,147.6102,-6.8176e-05,-0.0001017,0.0,0 STARLINK-5014,1 53926U 22119AS  22303.91668981 -.00010170  00000-0 -68176-4 0  9991,2 53926  53.2150  75.0519 0001699  32.0589 147.6102 15.73182782  1301,6727.944,91.534,350.952,348.666,0.0
53926.0,STARLINK-5014,PAYLOAD,2022-10-31 14:00:01,15.7323487,0.0001702,53.2154,71.7526,35.4431,321.9899,-0.00023414,-0.00033401,0.0,0 STARLINK-5014,1 53926U 22119AS  22304.58334491 -.00033401  00000-0 -23414-3 0  9998,2 53926  53.2154  71.7526 0001702  35.4431 321.9899 15.73234870  1300,6727.795999999999,91.531,350.806,348.516,0.0
53926.0,STARLINK-5014,PAYLOAD,2022-10-31 20:00:01,15.73222552,0.0001868,53.2153,70.5162,30.0343,304.181,-9.4718e-05,-0.00013906,0.0,0 STARLINK-5014,1 53926U 22119AS  22304.83335648 -.00013906  00000-0 -94718-4 0  9995,2 53926  53.2153  70.5162 0001868  30.0343 304.1810 15.73222552  6235,6727.831,91.532,350.95300000000015,348.439,0.0
53926.0,STARLINK-5014,PAYLOAD,2022-10-31 22:00:01,15.73248176,0.0001875,53.2153,70.1032,30.5273,55.9199,-0.00058792,-0.00082502,0.0,0 STARLINK-5014,1 53926U 22119AS  22304.91668981 -.00082502  00000-0 -58792-3 0  9992,2 53926  53.2153  70.1032 0001875  30.5273  55.9199 15.73248176  1306,6727.7580000000025,91.53,350.884,348.361,0.0
53926.0,STARLINK-5014,PAYLOAD,2022-11-01 14:00:01,15.73242285,0.0001986,53.2155,66.8039,33.5598,230.6997,-2.1722e-05,-3.674e-05,0.0,0 STARLINK-5014,1 53926U 22119AS  22305.58334491 -.00003674  00000-0 -21722-4 0  9999,2 53926  53.2155  66.8039 0001986  33.5598 230.6997 15.73242285  1306,6727.775,91.531,350.976,348.30300000000005,0.0
53926.0,STARLINK-5014,PAYLOAD,2022-11-01 20:00:01,15.73250351,0.000206,53.2151,65.5671,29.064,211.9298,-0.00026943,-0.00038347,0.0,0 STARLINK-5014,1 53926U 22119AS  22305.83334491 -.00038347  00000-0 -26943-3 0  9991,2 53926  53.2151  65.5671 0002060  29.0640 211.9298 15.73250351  6395,6727.752,91.53,351.00300000000016,348.231,0.0
53926.0,STARLINK-5014,PAYLOAD,2022-11-01 22:00:00,15.73259417,0.0002043,53.215,65.1542,28.9329,324.3037,-0.00054708,-0.00076904,0.0,0 STARLINK-5014,1 53926U 22119AS  22305.91667824 -.00076904  00000-0 -54708-3 0  9990,2 53926  53.2150  65.1542 0002043  28.9329 324.3037 15.73259417  1308,6727.726,91.53,350.965,348.216,0.0
53926.0,STARLINK-5014,PAYLOAD,2022-11-02 14:00:01,15.7313232,0.0002173,53.2157,61.852,31.6397,139.4889,0.00028588,0.00039576,0.0,0 STARLINK-5014,1 53926U 22119AS  22306.58334491  .00039576  00000-0  28588-3 0  9994,2 53926  53.2157  61.8520 0002173  31.6397 139.4889 15.73132320  6515,6728.0880000000025,91.537,351.415,348.491,0.0
53926.0,STARLINK-5014,PAYLOAD,2022-11-02 22:00:00,15.73181669,0.0002256,53.2154,60.2055,31.0053,228.9571,0.00041636,0.00058176,0.0,0 STARLINK-5014,1 53926U 22119AS  22306.91667824  .00058176  00000-0  41636-3 0  9996,2 53926  53.2154  60.2055 0002256  31.0053 228.9571 15.73181669  1307,6727.946999999999,91.534,351.33,348.295,0.0
53926.0,STARLINK-5014,PAYLOAD,2022-11-03 14:00:01,15.73263531,0.000231,53.2157,56.9064,27.057,50.8165,-3.4946e-05,-5.537e-05,0.0,0 STARLINK-5014,1 53926U 22119AS  22307.58334491 -.00005537  00000-0 -34946-4 0  9993,2 53926  53.2157  56.9064 0002310  27.0570  50.8165 15.73263531  6677,6727.714,91.529,351.1330000000001,348.025,0.0
53926.0,STARLINK-5014,PAYLOAD,2022-11-03 22:00:00,15.73284574,0.0002323,53.2154,55.2563,23.6826,143.1908,-0.00053205,-0.0007491,0.0,0 STARLINK-5014,1 53926U 22119AS  22307.91667824 -.00074910  00000-0 -53205-3 0  9998,2 53926  53.2154  55.2563 0002323  23.6826 143.1908 15.73284574  1306,6727.654,91.528,351.082,347.956,0.0
53926.0,STARLINK-5014,PAYLOAD,2022-11-04 06:00:00,15.73229838,0.000216,53.2155,53.6047,27.0003,228.8746,-0.00025303,-0.0003603,0.0,0 STARLINK-5014,1 53926U 22119AS  22308.25001157 -.00036030  00000-0 -25303-3 0  9996,2 53926  53.2155  53.6047 0002160  27.0003 228.8746 15.73229838  6779,6727.81,91.531,351.12800000000016,348.222,0.0
53926.0,STARLINK-5014,PAYLOAD,2022-11-04 14:00:01,15.73307103,0.0002186,53.2162,51.9469,27.5163,317.3,-0.0029632,-0.00399271,0.0,0 STARLINK-5014,1 53926U 22119AS  22308.58334491 -.00399271  00000-0 -29632-2 0  9999,2 53926  53.2162  51.9469 0002186  27.5163 317.3000 15.73307103  6821,6727.59,91.527,350.925,347.9840000000001,0.0
53926.0,STARLINK-5014,PAYLOAD,2022-11-04 22:00:01,15.73224101,0.0002394,53.2161,50.3072,18.4913,55.3423,-0.00061425,-0.00086053,0.0,0 STARLINK-5014,1 53926U 22119AS  22308.91668981 -.00086053  00000-0 -61425-3 0  9998,2 53926  53.2161  50.3072 0002394  18.4913  55.3423 15.73224101  1308,6727.826,91.532,351.302,348.081,0.0
53926.0,STARLINK-5014,PAYLOAD,2022-11-05 14:00:01,15.73116127,0.000264,53.2166,47.00899999999999,21.4074,230.1962,4.2703e-05,5.355e-05,0.0,0 STARLINK-5014,1 53926U 22119AS  22309.58335648  .00005355  00000-0  42703-4 0  9996,2 53926  53.2166  47.0090 0002640  21.4074 230.1962 15.73116127  1301,6728.134,91.538,351.776,348.223,0.0
53926.0,STARLINK-5014,PAYLOAD,2022-11-05 22:00:01,15.73144995,0.0002596,53.2163,45.359,19.2143,321.2141,0.00033504,0.00046555,0.0,0 STARLINK-5014,1 53926U 22119AS  22309.91668981  .00046555  00000-0  33504-3 0  9997,2 53926  53.2163  45.3590 0002596  19.2143 321.2141 15.73144995  7037,6728.052,91.536,351.664,348.17,0.0
53926.0,STARLINK-5014,PAYLOAD,2022-11-06 14:00:01,15.73168409,0.0002828,53.2166,42.0612,23.9752,134.2005,0.00052561,0.00073704,0.0,0 STARLINK-5014,1 53926U 22119AS  22310.58334491  .00073704  00000-0  52561-3 0  9998,2 53926  53.2166  42.0612 0002828  23.9752 134.2005 15.73168409  1306,6727.985,91.535,351.75300000000016,347.9480000000001,0.0
53926.0,STARLINK-5014,PAYLOAD,2022-11-06 22:00:00,15.73274425,0.0002739,53.2169,40.4109,21.6789,225.407,-0.00065346,-0.0009165,0.0,0 STARLINK-5014,1 53926U 22119AS  22310.91667824 -.00091650  00000-0 -65346-3 0  9991,2 53926  53.2169  40.4109 0002739  21.6789 225.4070 15.73274425  7192,6727.683000000001,91.529,351.391,347.705,0.0
